STARLINK-1459
1 25769C 20038AR  21325.18072237  .00004127  00000-0  27656-3 0  3253
2 25769  53.0543  82.4250 0001304  78.1565 328.7045 15.06387630    13
